SL-16 R/B               
1 22285U 92093B   25310.84309788  .00000241  00000+0  14805-3 0  9997
2 22285  71.0203 262.1468 0003198 165.3384 194.7832 14.15419291695779
COSMOS 2228             
1 22286U 92094A   25310.92047876  .00002789  00000+0  24266-3 0  9996
2 22286  82.5193 354.8031 0017969   0.6862 359.4381 14.96481740757699
SL-16 R/B               
1 22566U 93016B   25310.87128085 -.00000103  00000+0 -28178-4 0  9995
2 22566  71.0047 113.1343 0009386 162.4669 197.6779 14.15278142684793
COSMOS 2242             
1 22626U 93024A   25310.51690253  .00002961  00000+0  26195-3 0  9991
2 22626  82.5222  24.4564 0016412   4.9001 355.2378 14.95880636761977
SL-16 R/B               
1 22803U 93059B   25310.87634097 -.00000014  00000+0  16651-4 0  9994
2 22803  70.9891 270.1099 0015815  30.5311 329.6730 14.17202110662139
ARIANE 40 R/B           
1 22830U 93061H   25310.65361499  .00000387  00000+0  15789-3 0  9998
2 22830  98.5120  16.8329 0009629 290.1631  69.8518 14.32766333676485
COSMOS 2278             
1 23087U 94023A   25310.74888736  .00000204  00000+0  13150-3 0  9998
2 23087  71.0525  72.3049 0010293 225.6526 134.3754 14.14332621627425
SL-16 R/B               
1 23088U 94023B   25310.49814358 -.00000064  00000+0 -84362-5 0  9991
2 23088  71.0006 329.5972 0001736 175.2298 184.8841 14.14993182628669
SL-16 R/B               
1 23343U 94074B   25310.57061066  .00000762  00000+0  10923-3 0  9993
2 23343  97.7250 341.3045 0005130 260.4690 251.1424 14.79225387669045
SL-16 R/B               
1 23405U 94077B   25310.81046537  .00000271  00000+0  16299-3 0  9995
2 23405  70.9819 250.9966 0003633 313.2649  46.8171 14.15540103598845
ARIANE 40+ R/B          
1 23561U 95021B   25310.68335116  .00000513  00000+0  17782-3 0  9994
2 23561  98.4693  18.7008 0007494 143.5864   7.8037 14.39651603601546
SL-16 R/B               
1 23705U 95058B   25310.74068462  .00000184  00000+0  11825-3 0  9994
2 23705  71.0212  78.3802 0014519 301.9683  58.0028 14.15475053550457
